[{"OBJECT_NAME":"STARLINK-32843","OBJECT_ID":"2025-018J","EPOCH":"2026-03-09T22:19:18.526656","MEAN_MOTION":15.30173144,"ECCENTRICITY":8.818e-5,"INCLINATION":53.161,"RA_OF_ASC_NODE":308.5895,"ARG_OF_PERICENTER":124.1197,"MEAN_ANOMALY":235.9888,"EPHEMERIS_TYPE":0,"CLASSIFICATION_TYPE":"U","NORAD_CAT_ID":62814,"ELEMENT_SET_NO":999,"REV_AT_EPOCH":6320,"BSTAR":0.0013315326,"MEAN_MOTION_DOT":0.00039253,"MEAN_MOTION_DDOT":0},{"OBJECT_NAME":"JINJUSAT-1B","OBJECT_ID":"2025-052A","EPOCH":"2026-03-09T15:55:38.242848","MEAN_MOTION":15.30194857,"ECCENTRICITY":0.00055504,"INCLINATION":97.4113,"RA_OF_ASC_NODE":325.4613,"ARG_OF_PERICENTER":82.193,"MEAN_ANOMALY":277.9941,"EPHEMERIS_TYPE":0,"CLASSIFICATION_TYPE":"U","NORAD_CAT_ID":63210,"ELEMENT_SET_NO":999,"REV_AT_EPOCH":5486,"BSTAR":0.00068430401,"MEAN_MOTION_DOT":0.00019955,"MEAN_MOTION_DDOT":0}]
