STARLINK-32843          
1 62814U 25018J   26068.93007554  .00039253  00000+0  13315-2 0  9998
2 62814  53.1610 308.5895 0000882 124.1197 235.9888 15.30173144 63203
JINJUSAT-1B             
1 63210U 25052A   26068.66363707  .00019955  00000+0  68430-3 0  9998
2 63210  97.4113 325.4613 0005550  82.1930 277.9941 15.30194857 54866
